stk.v.11.0

# WrittenBy    STK_v11.2.0

BEGIN Ephemeris

NumberOfEphemerisPoints 23079

ScenarioEpoch            1 Oct 1980 23:41:24.114000

# Epoch in JDate format: 2444514.48708465277778
# Epoch in YYDDD format:   80275.98708465277778


InterpolationMethod     Lagrange

InterpolationSamplesM1      5

CentralBody             Earth

CoordinateSystem        ICRF 

# Time of first point: 1 Oct 1980 23:41:24.114000000 UTCG = 2444514.48708465277778 JDate = 80275.98708465277778 YYDDD

EphemerisTimePosVel

5.25420000000000e+05 -2.09028876960685e+06 5.12192151854276e+06 3.55435876150030e+06 -1.05434400351571e+03 -4.71544608528939e+03 6.14919140028798e+03
5.25450000000000e+05 -2.12059588894348e+06 4.97725625838834e+06 3.73654818635138e+06 -9.65840213468015e+02 -4.92770686811144e+03 5.99549251389030e+03
5.25480000000000e+05 -2.14822934997631e+06 4.82631595118396e+06 3.91401240515167e+06 -8.76125407399546e+02 -5.13373906038698e+03 5.83422396869269e+03
5.25510000000000e+05 -2.17315457152583e+06 4.66929149537534e+06 4.08652748109612e+06 -7.85316332574355e+02 -5.33327626867480e+03 5.66559725069380e+03
5.25540000000000e+05 -2.19534049686085e+06 4.50638164337317e+06 4.25387597414213e+06 -6.93531121952113e+02 -5.52606128648145e+03 5.48983376701288e+03
5.25570000000000e+05 -2.21475963241014e+06 4.33779272007997e+06 4.41584723299337e+06 -6.00889109309368e+02 -5.71184645888081e+03 5.30716447601404e+03
5.25600000000000e+05 -2.23138808090385e+06 4.16373833083536e+06 4.57223767570741e+06 -5.07510643809928e+02 -5.89039402620005e+03 5.11782950307257e+03
5.25630000000000e+05 -2.24520556894564e+06 3.98443905938409e+06 4.72285105855429e+06 -4.13516904488743e+02 -6.06147644637728e+03 4.92207774323585e+03
5.25660000000000e+05 -2.25619546901675e+06 3.80012215655066e+06 4.86749873272599e+06 -3.19029715137858e+02 -6.22487669562564e+03 4.72016645210789e+03
5.25690000000000e+05 -2.26434481593747e+06 3.61102122025419e+06 5.00599988859043e+06 -2.24171360026490e+02 -6.38038854720488e+03 4.51236082622102e+03
5.25720000000000e+05 -2.26964431781683e+06 3.41737586753799e+06 5.13818178718956e+06 -1.29064400887731e+02 -6.52781682816365e+03 4.29893357418160e+03
5.25750000000000e+05 -2.27208836153868e+06 3.21943139928412e+06 5.26387997872627e+06 -3.38314955719497e+01 -6.66697765401957e+03 4.08016447985056e+03
5.25780000000000e+05 -2.27167501284178e+06 3.01743845825362e+06 5.38293850784162e+06 6.14047812707278e+01 -6.79769864145493e+03 3.85633995875630e+03
5.25810000000000e+05 -2.26840601106239e+06 2.81165268114341e+06 5.49521010548280e+06 1.56522115119168e+02 -6.91981909914838e+03 3.62775260896133e+03
5.25840000000000e+05 -2.26228675861822e+06 2.60233434527029e+06 5.60055636724473e+06 2.51398625825551e+02 -7.03319019699248e+03 3.39470075747779e+03
5.25870000000000e+05 -2.25332630531917e+06 2.38974801057395e+06 5.69884791804854e+06 3.45913038861226e+02 -7.13767511395800e+03 3.15748800337570e+03
5.25900000000000e+05 -2.24153732760241e+06 2.17416215752542e+06 5.78996456310360e+06 4.39944853332914e+02 -7.23314916498491e+03 2.91642275857298e+03
5.25930000000000e+05 -2.22693610279148e+06 1.95584882159131e+06 5.87379542509014e+06 5.33374506518796e+02 -7.31949990729065e+03 2.67181778731754e+03
5.25960000000000e+05 -2.20954247849005e+06 1.73508322485121e+06 5.95023906754715e+06 6.26083534732063e+02 -7.39662722655410e+03 2.42398974527291e+03
5.25990000000000e+05 -2.18937983722081e+06 1.51214340535147e+06 6.01920360447518e+06 7.17954730333448e+02 -7.46444340347035e+03 2.17325871905235e+03
5.26020000000000e+05 -2.16647505643153e+06 1.28730984479041e+06 6.08060679617671e+06 8.08872294740657e+02 -7.52287316119020e+03 1.91994776701875e+03
5.26050000000000e+05 -2.14085846398655e+06 1.06086509506905e+06 6.13437613139508e+06 8.98721987316010e+02 -7.57185369419750e+03 1.66438246205081e+03
5.26080000000000e+05 -2.11256378927095e+06 8.33093404272180e+05 6.18044889581708e+06 9.87391270018849e+02 -7.61133467917668e+03 1.40689043696751e+03
5.26110000000000e+05 -2.08162811003353e+06 6.04280342585420e+05 6.21877222703440e+06 1.07476944775244e+03 -7.64127826844215e+03 1.14780093319690e+03
5.26140000000000e+05 -2.04809179509978e+06 3.74712428679379e+05 6.24930315606640e+06 1.16074780432705e+03 -7.66165906649530e+03 8.87444353259877e+02
5.26170000000000e+05 -2.01199844308135e+06 1.44676757015222e+05 6.27200863557119e+06 1.24521973401067e+03 -7.67246409027807e+03 6.26151817520508e+02
5.26200000000000e+05 -1.97339481721975e+06 -8.55393734081021e+04 6.28686555487223e+06 1.32808086861727e+03 -7.67369271367225e+03 3.64254725692848e+02
5.26230000000000e+05 -1.93233077648975e+06 -3.15648828451422e+05 6.29386074195230e+06 1.40922920012683e+03 -7.66535659679006e+03 1.02084323442621e+02
5.26260000000000e+05 -1.88885920310018e+06 -5.45365005901722e+05 6.29299095256651e+06 1.48856519882037e+03 -7.64747960057423e+03 -1.60028725531237e+02
5.26290000000000e+05 -1.84303592652129e+06 -7.74402199798964e+05 6.28426284664114e+06 1.56599192693109e+03 -7.62009768721013e+03 -4.21754761652934e+02
5.26320000000000e+05 -1.79491964417189e+06 -1.00247596160285e+06 6.26769295213020e+06 1.64141514781975e+03 -7.58325880682409e+03 -6.82765545583561e+02
5.26350000000000e+05 -1.74457183889810e+06 -1.22930345779947e+06 6.24330761650935e+06 1.71474343068114e+03 -7.53702277091852e+03 -9.42734668052062e+02
5.26380000000000e+05 -1.69205669337606e+06 -1.45460382355708e+06 6.21114294609376e+06 1.78588825079270e+03 -7.48146111296710e+03 -1.20133795318375e+03
5.26410000000000e+05 -1.63744100156651e+06 -1.67809851206601e+06 6.17124473336980e+06 1.85476408532718e+03 -7.41665693656108e+03 -1.45825385514097e+03
5.26440000000000e+05 -1.58079407735817e+06 -1.89951163917342e+06 6.12366837254101e+06 1.92128850472840e+03 -7.34270475148073e+03 -1.71316384786840e+03
5.26470000000000e+05 -1.52218766052580e+06 -2.11857032297423e+06 6.06847876348890e+06 1.98538225967289e+03 -7.25971029802876e+03 -1.96575280778886e+03
5.26500000000000e+05 -1.46169582013297e+06 -2.33500501801392e+06 6.00575020435406e+06 2.04696936362150e+03 -7.16779035993957e+03 -2.21570938928701e+03
5.26530000000000e+05 -1.39939485551737e+06 -2.54854984373602e+06 5.93556627295721e+06 2.10597717095885e+03 -7.06707256616800e+03 -2.46272639278237e+03
5.26560000000000e+05 -1.33536319497849e+06 -2.75894290688137e+06 5.85801969726835e+06 2.16233645073225e+03 -6.95769518181509e+03 -2.70650112526728e+03
5.26590000000000e+05 -1.26968129230996e+06 -2.96592661747723e+06 5.77321221515725e+06 2.21598145597099e+03 -6.83980688846136e+03 -2.94673575309351e+03
5.26620000000000e+05 -1.20243152130150e+06 -3.16924799812019e+06 5.68125442364907e+06 2.26684998858343e+03 -6.71356655413917e+03 -3.18313764684947e+03
5.26650000000000e+05 -1.13369806834534e+06 -3.36865898623460e+06 5.58226561792189e+06 2.31488345981122e+03 -6.57914299317653e+03 -3.41541971812726e+03
5.26680000000000e+05 -1.06356682328008e+06 -3.56391672899973e+06 5.47637362028939e+06 2.36002694622069e+03 -6.43671471613489e+03 -3.64330074797134e+03
5.26710000000000e+05 -9.92125268609371e+05 -3.75478387064119e+06 5.36371459942097e+06 2.40222924120037e+03 -6.28646967006479e+03 -3.86650570678353e+03
5.26740000000000e+05 -9.19462367225191e+05 -3.94102883180910e+06 5.24443288004829e+06 2.44144290193743e+03 -6.12860496928622e+03 -4.08476606546782e+03
5.26770000000000e+05 -8.45668448779309e+05 -4.12242608073534e+06 5.11868074343455e+06 2.47762429183404e+03 -5.96332661693149e+03 -4.29782009754083e+03
5.26800000000000e+05 -7.70835094839282e+05 -4.29875639590198e+06 4.98661821887469e+06 2.51073361832379e+03 -5.79084921747393e+03 -4.50541317195929e+03
5.26830000000000e+05 -6.95055022965025e+05 -4.46980711994915e+06 4.84841286650765e+06 2.54073496605205e+03 -5.61139568048002e+03 -4.70729803638754e+03
5.26860000000000e+05 -6.18421969853763e+05 -4.63537240455111e+06 4.70423955173667e+06 2.56759632537015e+03 -5.42519691584750e+03 -4.90323509060961e+03
5.26890000000000e+05 -5.41030573692461e+05 -4.79525344600235e+06 4.55428021156170e+06 2.59128961610732e+03 -5.23249152080265e+03 -5.09299264978298e+03
5.26920000000000e+05 -4.62976255864109e+05 -4.94925871126936e+06 4.39872361313304e+06 2.61179070657405e+03 -5.03352545894759e+03 -5.27634719723061e+03
5.26950000000000e+05 -3.84355102150653e+05 -5.09720415427198e+06 4.23776510484549e+06 2.62907942776003e+03 -4.82855173166856e+03 -5.45308362645839e+03
5.26980000000000e+05 -3.05263743582047e+05 -5.23891342215886e+06 4.07160636031208e+06 2.64313958268978e+03 -4.61783004225276e+03 -5.62299547207102e+03
5.27010000000000e+05 -2.25799237078889e+05 -5.37421805136644e+06 3.90045511555366e+06 2.65395895090287e+03 -4.40162645307263e+03 -5.78588512927464e+03
5.27040000000000e+05 -1.46058946040579e+05 -5.50295765324595e+06 3.72452489977064e+06 2.66152928803526e+03 -4.18021303624536e+03 -5.94156406163680e+03
5.27070000000000e+05 -6.61404210156652e+04 -5.62498008909165e+06 3.54403476002656e+06 2.66584632048261e+03 -3.95386751814783e+03 -6.08985299682348e+03
5.27100000000000e+05 1.38587193727389e+04 -5.74014163435496e+06 3.35920898026434e+06 2.66690973513222e+03 -3.72287291829659e+03 -6.23058210996701e+03
5.27130000000000e+05 9.38409071240833e+04 -5.84830713192021e+06 3.17027679498331e+06 2.66472316416706e+03 -3.48751718300049e+03 -6.36359119442324e+03
5.27160000000000e+05 1.73708743005145e+05 -5.94935013426208e+06 2.97747209801194e+06 2.65929416494550e+03 -3.24809281434817e+03 -6.48872981960729e+03
5.27190000000000e+05 2.53365114013702e+05 -6.04315303437688e+06 2.78103314673772e+06 2.65063419498033e+03 -3.00489649501211e+03 -6.60585747568355e+03
5.27220000000000e+05 3.32713309997556e+05 -6.12960718535724e+06 2.58120226222455e+06 2.63875858204552e+03 -2.75822870945677e+03 -6.71484370486073e+03
5.27250000000000e+05 4.11657139296404e+05 -6.20861300852636e+06 2.37822552560316e+06 2.62368648945623e+03 -2.50839336209422e+03 -6.81556821910398e+03
5.27280000000000e+05 4.90101043247704e+05 -6.28008009004075e+06 2.17235247117690e+06 2.60544087657785e+03 -2.25569739301725e+03 -6.90792100407309e+03
END Ephemeris
